NORAD_CAT_ID,OBJECT_NAME,OBJECT_TYPE,EPOCH,MEAN_MOTION,ECCENTRICITY,INCLINATION,RA_OF_ASC_NODE,ARG_OF_PERICENTER,MEAN_ANOMALY,BSTAR,MEAN_MOTION_DOT,MEAN_MOTION_DDOT,TLE_LINE0,TLE_LINE1,TLE_LINE2,SEMIMAJOR_AXIS,PERIOD,APOGEE,PERIGEE,DECAYED
50844.0,STARLINK-3326,PAYLOAD,2023-08-08 01:57:29,15.08849228,9.33e-05,53.2166,99.6294,74.331,285.7785,-4.9321e-05,-1.073e-05,0.0,0 STARLINK-3326,1 50844U 22001AT  23220.08158880 -.00001073  00000-0 -49321-4 0  9999,2 50844  53.2166  99.6294 0000933  74.3310 285.7785 15.08849228 88946,6917.852,95.437,540.363,539.072,0.0
50844.0,STARLINK-3326,PAYLOAD,2023-08-09 08:09:49,15.08844954,0.0001301,53.2153,93.9779,69.3869,290.7262,0.00015337,2.154e-05,0.0,0 STARLINK-3326,1 50844U 22001AT  23221.34015135  .00002154  00000-0  15337-3 0  9992,2 50844  53.2153  93.9779 0001301  69.3869 290.7262 15.08844954 89139,6917.865,95.437,540.63,538.83,0.0
50844.0,STARLINK-3326,PAYLOAD,2023-08-10 08:00:35,15.08842956,8.58e-05,53.2148,89.5192,75.8014,284.3074,-5.1248e-05,-1.103e-05,0.0,0 STARLINK-3326,1 50844U 22001AT  23222.33374783 -.00001103  00000-0 -51248-4 0  9996,2 50844  53.2148  89.5192 0000858  75.8014 284.3074 15.08842956 89289,6917.871,95.437,540.33,539.143,0.0
50844.0,STARLINK-3326,PAYLOAD,2023-08-11 23:45:14,15.08848054,0.0001027,53.2157,82.0839,80.962,279.1488,0.00022999,3.375e-05,0.0,0 STARLINK-3326,1 50844U 22001AT  23223.98974856  .00003375  00000-0  22999-3 0  9996,2 50844  53.2157  82.0839 0001027  80.9620 279.1488 15.08848054 89538,6917.856,95.437,540.431,539.01,0.0
50844.0,STARLINK-3326,PAYLOAD,2023-08-12 20:25:15,15.08841688,0.0001042,53.2153,78.2185,90.543,269.5681,0.00011279,1.508e-05,0.0,0 STARLINK-3326,1 50844U 22001AT  23224.85087138  .00001508  00000-0  11279-3 0  9996,2 50844  53.2153  78.2185 0001042  90.5430 269.5681 15.08841688 89666,6917.875,95.437,540.461,539.019,0.0
50844.0,STARLINK-3326,PAYLOAD,2023-08-13 20:16:02,15.08840541,0.0001004,53.2146,73.758,86.8049,273.3058,-8.3989e-06,-4.21e-06,0.0,0 STARLINK-3326,1 50844U 22001AT  23225.84447252 -.00000421  00000-0 -83989-5 0  9997,2 50844  53.2146  73.7580 0001004  86.8049 273.3058 15.08840541 89814,6917.879,95.438,540.438,539.049,0.0
50844.0,STARLINK-3326,PAYLOAD,2023-08-14 23:17:35,15.08848891,0.0001094,53.2158,68.7033,85.7098,274.4019,0.00013737,1.9e-05,0.0,0 STARLINK-3326,1 50844U 22001AT  23226.97054591  .00001900  00000-0  13737-3 0  9995,2 50844  53.2158  68.7033 0001094  85.7098 274.4019 15.08848891 89988,6917.853,95.437,540.475,538.961,0.0
50844.0,STARLINK-3326,PAYLOAD,2023-08-15 13:36:03,15.08840274,0.0001146,53.2145,66.0265,85.8729,274.2394,9.2242e-05,1.181e-05,0.0,0 STARLINK-3326,1 50844U 22001AT  23227.56671214  .00001181  00000-0  92242-4 0  9998,2 50844  53.2145  66.0265 0001146  85.8729 274.2394 15.08840274 90075,6917.88,95.438,540.537,538.952,0.0
50844.0,STARLINK-3326,PAYLOAD,2023-08-16 22:59:09,15.08850996,0.0001165,53.2138,59.7817,94.8478,265.2647,-0.00014357,-2.573e-05,0.0,0 STARLINK-3326,1 50844U 22001AT  23228.95775069 -.00002573  00000-0 -14357-3 0  9993,2 50844  53.2138  59.7817 0001165  94.8478 265.2647 15.08850996 90287,6917.847,95.437,540.518,538.906,0.0
50844.0,STARLINK-3326,PAYLOAD,2023-08-17 11:42:15,15.08838415,0.000116,53.2139,57.4025,94.8727,265.2398,5.7746e-05,6.31e-06,0.0,0 STARLINK-3326,1 50844U 22001AT  23229.48767389  .00000631  00000-0  57746-4 0  9999,2 50844  53.2139  57.4025 0001160  94.8727 265.2398 15.08838415 90360,6917.885,95.438,540.553,538.948,0.0
50844.0,STARLINK-3326,PAYLOAD,2023-08-18 13:08:25,15.08835628,0.0001044,53.2236,52.6481,90.9391,269.1721,3.2175e-05,2.24e-06,0.0,0 STARLINK-3326,1 50844U 22001AT  23230.54752006  .00000224  00000-0  32175-4 0  9995,2 50844  53.2236  52.6481 0001044  90.9391 269.1721 15.08835628 90520,6917.894,95.438,540.481,539.037,0.0
50844.0,STARLINK-3326,PAYLOAD,2023-08-19 20:56:08,15.08842441,9.05e-05,53.2144,46.6956,78.2966,281.8127,4.1274e-05,3.69e-06,0.0,0 STARLINK-3326,1 50844U 22001AT  23231.87231931  .00000369  00000-0  41274-4 0  9991,2 50844  53.2144  46.6956 0000905  78.2966 281.8127 15.08842441 90724,6917.873,95.437,540.364,539.112,0.0
50844.0,STARLINK-3326,PAYLOAD,2023-08-20 11:14:37,15.08819298,0.0001159,53.2145,44.019,84.8329,275.2795,0.00043368,6.617e-05,0.0,0 STARLINK-3326,1 50844U 22001AT  23232.46848647  .00006617  00000-0  43368-3 0  9992,2 50844  53.2145  44.0190 0001159  84.8329 275.2795 15.08819298 90817,6917.944,95.439,540.61,539.007,0.0
50844.0,STARLINK-3326,PAYLOAD,2023-08-20 17:36:09,15.08843623,0.0001026,53.2172,42.8314,77.6581,282.4525,0.00015246,2.14e-05,0.0,0 STARLINK-3326,1 50844U 22001AT  23232.73343836  .00002140  00000-0  15246-3 0  9993,2 50844  53.2172  42.8314 0001026  77.6581 282.4525 15.08843623 90858,6917.869,95.437,540.444,539.025,0.0
50844.0,STARLINK-3326,PAYLOAD,2023-08-21 11:05:23,15.08838683,0.000108,53.2171,39.5609,90.5724,269.5392,0.00014107,1.958e-05,0.0,0 STARLINK-3326,1 50844U 22001AT  23233.46208271  .00001958  00000-0  14107-3 0  9998,2 50844  53.2171  39.5609 0001080  90.5724 269.5392 15.08838683 90960,6917.884,95.438,540.497,539.002,0.0
50844.0,STARLINK-3326,PAYLOAD,2023-08-21 19:02:19,15.08846012,0.0001081,53.2166,38.0734,88.5848,271.5268,0.00013202,1.814e-05,0.0,0 STARLINK-3326,1 50844U 22001AT  23233.79327856  .00001814  00000-0  13202-3 0  9991,2 50844  53.2166  38.0734 0001081  88.5848 271.5268 15.08846012 91019,6917.862,95.437,540.475,538.979,0.0
50844.0,STARLINK-3326,PAYLOAD,2023-08-22 20:28:29,15.08846233,0.0001093,53.2166,33.3156,94.1514,265.9603,5.7814e-05,6.33e-06,0.0,0 STARLINK-3326,1 50844U 22001AT  23234.85311684  .00000633  00000-0  57814-4 0  9997,2 50844  53.2166  33.3156 0001093  94.1514 265.9603 15.08846233 91173,6917.861,95.437,540.482,538.97,0.0
50844.0,STARLINK-3326,PAYLOAD,2023-08-23 10:46:58,15.08831232,0.0001018,53.2164,30.6381,104.7021,255.4084,0.00011878,1.603e-05,0.0,0 STARLINK-3326,1 50844U 22001AT  23235.44928476  .00001603  00000-0  11878-3 0  9993,2 50844  53.2164  30.6381 0001018 104.7021 255.4084 15.08831232 91269,6917.907,95.438,540.476,539.068,0.0
50844.0,STARLINK-3326,PAYLOAD,2023-08-24 18:34:40,15.08842509,0.0001402,53.2193,24.6883,93.5834,266.5318,5.3154e-05,5.58e-06,0.0,0 STARLINK-3326,1 50844U 22001AT  23236.77408189  .00000558  00000-0  53154-4 0  9996,2 50844  53.2193  24.6883 0001402  93.5834 266.5318 15.08842509 90187,6917.873,95.437,540.708,538.768,0.0
50844.0,STARLINK-3326,PAYLOAD,2023-08-25 13:39:18,15.08837081,0.0001255,53.2175,21.1198,103.255,256.8582,5.025e-05,5.12e-06,0.0,0 STARLINK-3326,1 50844U 22001AT  23237.56896656  .00000512  00000-0  50250-4 0  9998,2 50844  53.2175  21.1198 0001255 103.2550 256.8582 15.08837081 90306,6917.889,95.438,540.623,538.886,0.0
50844.0,STARLINK-3326,PAYLOAD,2023-08-25 18:25:28,15.08836877,0.0001259,53.2188,20.2279,101.0514,259.0619,5.5645e-05,5.98e-06,0.0,0 STARLINK-3326,1 50844U 22001AT  23237.76768728  .00000598  00000-0  55645-4 0  9995,2 50844  53.2188  20.2279 0001259 101.0514 259.0619 15.08836877 91613,6917.89,95.438,540.626,538.884,0.0
50844.0,STARLINK-3326,PAYLOAD,2023-08-26 10:19:19,15.08838529,0.0001309,53.219,17.2539,93.1312,266.983,5.3511e-05,5.64e-06,0.0,0 STARLINK-3326,1 50844U 22001AT  23238.43008842  .00000564  00000-0  53511-4 0  9997,2 50844  53.2190  17.2539 0001309  93.1312 266.9830 15.08838529 90431,6917.885,95.438,540.655,538.844,0.0
50844.0,STARLINK-3326,PAYLOAD,2023-08-26 18:16:15,15.08842028,0.0001282,53.219,15.7675,87.4106,272.7033,7.0742e-05,8.38e-06,0.0,0 STARLINK-3326,1 50844U 22001AT  23238.76128534  .00000838  00000-0  70742-4 0  9993,2 50844  53.2190  15.7675 0001282  87.4106 272.7033 15.08842028 90486,6917.874,95.437,540.626,538.852,0.0
50844.0,STARLINK-3326,PAYLOAD,2023-08-27 16:31:38,15.08846925,0.0001257,53.219,11.6055,80.9794,279.134,0.00011923,1.611e-05,0.0,0 STARLINK-3326,1 50844U 22001AT  23239.68864182  .00001611  00000-0  11923-3 0  9996,2 50844  53.2190  11.6055 0001257  80.9794 279.1340 15.08846925 91906,6917.859,95.437,540.594,538.855,0.0
50844.0,STARLINK-3326,PAYLOAD,2023-08-28 02:03:57,15.08842112,0.0001235,53.2188,9.8228,82.4747,277.6386,6.2776e-05,7.11e-06,0.0,0 STARLINK-3326,1 50844U 22001AT  23240.08608562  .00000711  00000-0  62776-4 0  9993,2 50844  53.2188   9.8228 0001235  82.4747 277.6386 15.08842112 91968,6917.874,95.437,540.593,538.885,0.0
50844.0,STARLINK-3326,PAYLOAD,2023-08-28 16:22:25,15.08843273,0.0001263,53.2174,7.1465,88.6123,271.5014,6.6207e-05,7.66e-06,0.0,0 STARLINK-3326,1 50844U 22001AT  23240.68224450  .00000766  00000-0  66207-4 0  9992,2 50844  53.2174   7.1465 0001263  88.6123 271.5014 15.08843273 90772,6917.87,95.437,540.609,538.862,0.0
50844.0,STARLINK-3326,PAYLOAD,2023-08-29 08:16:17,15.08844043,0.000109,53.2165,4.176,100.1901,259.9214,-2.3609e-05,-6.64e-06,0.0,0 STARLINK-3326,1 50844U 22001AT  23241.34464633 -.00000664  00000-0 -23609-4 0  9993,2 50844  53.2165   4.1760 0001090 100.1901 259.9214 15.08844043 92151,6917.868,95.437,540.487,538.979,0.0
50844.0,STARLINK-3326,PAYLOAD,2023-08-29 16:13:12,15.08847371,0.0001152,53.2174,2.6886,95.2151,264.8973,1.13e-05,-1.08e-06,0.0,0 STARLINK-3326,1 50844U 22001AT  23241.67584266 -.00000108  00000-0  11300-4 0  9991,2 50844  53.2174   2.6886 0001152  95.2151 264.8973 15.08847371 90920,6917.858,95.437,540.52,538.926,0.0
50844.0,STARLINK-3326,PAYLOAD,2023-08-30 16:03:59,15.08851719,0.0001209,53.2173,358.2266,84.4087,275.7043,7.8736e-05,9.66e-06,0.0,0 STARLINK-3326,1 50844U 22001AT  23242.66943702  .00000966  00000-0  78736-4 0  9992,2 50844  53.2173 358.2266 0001209  84.4087 275.7043 15.08851719 92351,6917.845,95.437,540.546,538.873,0.0
50844.0,STARLINK-3326,PAYLOAD,2023-08-31 07:57:51,15.08837559,0.0001388,53.2168,355.254,85.2943,274.8207,4.229e-05,3.85e-06,0.0,0 STARLINK-3326,1 50844U 22001AT  23243.33184748  .00000385  00000-0  42290-4 0  9995,2 50844  53.2168 355.2540 0001388  85.2943 274.8207 15.08837559 92454,6917.888,95.438,540.713,538.793,0.0
